[{"OBJECT_NAME":"STPSAT-5","OBJECT_ID":"2018-099E","EPOCH":"2026-03-09T17:03:28.111392","MEAN_MOTION":15.12747444,"ECCENTRICITY":0.00022983,"INCLINATION":97.4221,"RA_OF_ASC_NODE":121.2038,"ARG_OF_PERICENTER":348.2431,"MEAN_ANOMALY":11.8746,"EPHEMERIS_TYPE":0,"CLASSIFICATION_TYPE":"U","NORAD_CAT_ID":43762,"ELEMENT_SET_NO":999,"REV_AT_EPOCH":39782,"BSTAR":0.00030771004,"MEAN_MOTION_DOT":5.331e-5,"MEAN_MOTION_DDOT":0},{"OBJECT_NAME":"STARLINK-5400","OBJECT_ID":"2022-177AT","EPOCH":"2026-03-09T22:00:01.999584","MEAN_MOTION":15.13157782,"ECCENTRICITY":0.00021638,"INCLINATION":43.0004,"RA_OF_ASC_NODE":118.7368,"ARG_OF_PERICENTER":271.0289,"MEAN_ANOMALY":86.7671,"EPHEMERIS_TYPE":0,"CLASSIFICATION_TYPE":"U","NORAD_CAT_ID":54861,"ELEMENT_SET_NO":999,"REV_AT_EPOCH":567,"BSTAR":0.0017144311,"MEAN_MOTION_DOT":0.00030851,"MEAN_MOTION_DDOT":0}]
